[{"OBJECT_NAME":"STARLINK-5754","OBJECT_ID":"2023-020L","EPOCH":"2026-03-09T22:00:01.999584","MEAN_MOTION":15.10899351,"ECCENTRICITY":0.00010973,"INCLINATION":43.0004,"RA_OF_ASC_NODE":3.1467,"ARG_OF_PERICENTER":303.9575,"MEAN_ANOMALY":160.1535,"EPHEMERIS_TYPE":0,"CLASSIFICATION_TYPE":"U","NORAD_CAT_ID":55579,"ELEMENT_SET_NO":999,"REV_AT_EPOCH":573,"BSTAR":0.072815742,"MEAN_MOTION_DOT":0.01342281,"MEAN_MOTION_DDOT":0},{"OBJECT_NAME":"OBJECT H","OBJECT_ID":"2023-091H","EPOCH":"2026-03-09T22:34:46.487712","MEAN_MOTION":15.26380881,"ECCENTRICITY":0.00117854,"INCLINATION":97.5166,"RA_OF_ASC_NODE":131.4381,"ARG_OF_PERICENTER":104.1062,"MEAN_ANOMALY":256.1487,"EPHEMERIS_TYPE":0,"CLASSIFICATION_TYPE":"U","NORAD_CAT_ID":57173,"ELEMENT_SET_NO":999,"REV_AT_EPOCH":14915,"BSTAR":0.00056321781,"MEAN_MOTION_DOT":0.00014617,"MEAN_MOTION_DDOT":0}]
